NORAD_CAT_ID,OBJECT_NAME,OBJECT_TYPE,EPOCH,MEAN_MOTION,ECCENTRICITY,INCLINATION,RA_OF_ASC_NODE,ARG_OF_PERICENTER,MEAN_ANOMALY,BSTAR,MEAN_MOTION_DOT,MEAN_MOTION_DDOT,TLE_LINE0,TLE_LINE1,TLE_LINE2,SEMIMAJOR_AXIS,PERIOD,APOGEE,PERIGEE,DECAYED
49453.0,STARLINK-3129,PAYLOAD,2022-04-26 22:00:00,15.08843983,0.0002366,53.2173,81.2908,43.2444,25.2093,-0.00083275,-0.00013519,0.0,0 STARLINK-3129,1 49453U 21104AX  22116.91667824 -.00013519  00000-0 -83275-3 0  9997,2 49453  53.2173  81.2908 0002366  43.2444  25.2093 15.08843983  3579,6917.868,95.437,541.37,538.096,0.0
49453.0,STARLINK-3129,PAYLOAD,2022-04-27 12:00:00,15.08853109,0.0002495,53.2172,78.6731,38.7746,319.9549,-0.0013922,-0.00022386,0.0,0 STARLINK-3129,1 49453U 21104AX  22117.50001157 -.00022386  00000-0 -13922-2 0  9997,2 49453  53.2172  78.6731 0002495  38.7746 319.9549 15.08853109 26653,6917.84,95.437,541.431,537.979,0.0
49453.0,STARLINK-3129,PAYLOAD,2022-04-27 14:00:01,15.08856724,0.0002432,53.2175,78.2985,40.3274,51.3643,-0.0020622,-0.00032975,0.0,0 STARLINK-3129,1 49453U 21104AX  22117.58335648 -.00032975  00000-0 -20622-2 0  9990,2 49453  53.2175  78.2985 0002432  40.3274  51.3643 15.08856724  3607,6917.829000000002,95.436,541.377,538.012,0.0
49453.0,STARLINK-3129,PAYLOAD,2022-04-28 04:00:01,15.08844011,0.0002471,53.2178,75.6807,40.1125,341.8915,0.00032527,4.893e-05,0.0,0 STARLINK-3129,1 49453U 21104AX  22118.16668981  .00004893  00000-0  32527-3 0  9998,2 49453  53.2178  75.6807 0002471  40.1125 341.8915 15.08844011 26767,6917.868,95.437,541.443,538.024,0.0
49453.0,STARLINK-3129,PAYLOAD,2022-04-28 14:00:01,15.08880561,0.0002297,53.2181,73.8092,40.1442,86.3033,-0.003204,-0.00050978,0.0,0 STARLINK-3129,1 49453U 21104AX  22118.58334491 -.00050978  00000-0 -32040-2 0  9996,2 49453  53.2181  73.8092 0002297  40.1442  86.3033 15.08880561  3560,6917.755999999999,95.435,541.21,538.0319999999998,0.0
49453.0,STARLINK-3129,PAYLOAD,2022-04-29 12:00:00,15.08852091,0.0002145,53.2182,69.6946,33.9821,34.384,-0.0033815,-0.00053723,0.0,0 STARLINK-3129,1 49453U 21104AX  22119.50001157 -.00053723  00000-0 -33815-2 0  9991,2 49453  53.2182  69.6946 0002145  33.9821  34.3840 15.08852091 26960,6917.843000000003,95.437,541.192,538.225,0.0
49453.0,STARLINK-3129,PAYLOAD,2022-04-29 14:00:01,15.08839871,0.0002046,53.2184,69.3201,34.8556,126.4096,-0.0026052,-0.00041512,0.0,0 STARLINK-3129,1 49453U 21104AX  22119.58334491 -.00041512  00000-0 -26052-2 0  9997,2 49453  53.2184  69.3201 0002046  34.8556 126.4096 15.08839871  3566,6917.880999999999,95.438,541.161,538.33,0.0
49453.0,STARLINK-3129,PAYLOAD,2022-04-29 20:00:01,15.08803704,0.0001944,53.2185,68.1973,37.6979,42.2549,0.0029152,0.00046367,0.0,0 STARLINK-3129,1 49453U 21104AX  22119.83334491  .00046367  00000-0  29152-2 0  9990,2 49453  53.2185  68.1973 0001944  37.6979  42.2549 15.08803704 27016,6917.991,95.44,541.201,538.511,0.0
49453.0,STARLINK-3129,PAYLOAD,2022-04-29 22:00:00,15.08825687,0.0001962,53.2187,67.8238,36.8472,135.99,0.00066056,0.00010236,0.0,0 STARLINK-3129,1 49453U 21104AX  22119.91667824  .00010236  00000-0  66056-3 0  9999,2 49453  53.2187  67.8238 0001962  36.8472 135.9900 15.08825687  3566,6917.924,95.438,541.146,538.432,0.0
49453.0,STARLINK-3129,PAYLOAD,2022-04-30 04:00:00,15.08836805,0.0002126,53.2185,66.703,33.7088,57.8133,-0.001264,-0.00020347,0.0,0 STARLINK-3129,1 49453U 21104AX  22120.16667824 -.00020347  00000-0 -12640-2 0  9993,2 49453  53.2185  66.7030 0002126  33.7088  57.8133 15.08836805 27069,6917.89,95.438,541.226,538.284,0.0
49453.0,STARLINK-3129,PAYLOAD,2022-04-30 14:00:01,15.08820461,0.0001914,53.2184,64.8314,32.8511,163.1546,0.00083631,0.0001304,0.0,0 STARLINK-3129,1 49453U 21104AX  22120.58334491  .00013040  00000-0  83631-3 0  9999,2 49453  53.2184  64.8314 0001914  32.8511 163.1546 15.08820461  3566,6917.94,95.439,541.129,538.481,0.0
49453.0,STARLINK-3129,PAYLOAD,2022-04-30 20:00:01,15.08837787,0.0001837,53.2186,63.7088,36.3644,78.3188,0.00059225,9.15e-05,0.0,0 STARLINK-3129,1 49453U 21104AX  22120.83334491  .00009150  00000-0  59225-3 0  9996,2 49453  53.2186  63.7088 0001837  36.3644  78.3188 15.08837787 27164,6917.887,95.438,541.023,538.481,0.0
49453.0,STARLINK-3129,PAYLOAD,2022-04-30 22:00:00,15.08854703,0.0001863,53.2186,63.3355,35.1747,172.3967,-0.002703,-0.00043067,0.0,0 STARLINK-3129,1 49453U 21104AX  22120.91667824 -.00043067  00000-0 -27030-2 0  9999,2 49453  53.2186  63.3355 0001863  35.1747 172.3967 15.08854703  3562,6917.835,95.437,540.989,538.4119999999998,0.0
49453.0,STARLINK-3129,PAYLOAD,2022-05-01 04:00:00,15.08811262,0.0002025,53.2184,62.2146,31.9081,94.3682,0.00098818,0.00015462,0.0,0 STARLINK-3129,1 49453U 21104AX  22121.16667824  .00015462  00000-0  98818-3 0  9996,2 49453  53.2184  62.2146 0002025  31.9081  94.3682 15.08811262 27210,6917.968000000003,95.439,541.234,538.432,0.0
49453.0,STARLINK-3129,PAYLOAD,2022-05-01 14:00:01,15.08828035,0.0001912,53.2183,60.3428,34.4901,196.2518,-0.0014955,-0.00024003,0.0,0 STARLINK-3129,1 49453U 21104AX  22121.58334491 -.00024003  00000-0 -14955-2 0  9995,2 49453  53.2183  60.3428 0001912  34.4901 196.2518 15.08828035  3584,6917.917,95.438,541.105,538.4590000000002,0.0
49453.0,STARLINK-3129,PAYLOAD,2022-05-01 22:00:01,15.08900696,0.0002103,53.2184,58.847,38.5957,203.7935,-0.0060817,-0.00095954,0.0,0 STARLINK-3129,1 49453U 21104AX  22121.91668981 -.00095954  00000-0 -60817-2 0  9997,2 49453  53.2184  58.8470 0002103  38.5957 203.7935 15.08900696  3562,6917.695,95.434,541.015,538.105,0.0
49453.0,STARLINK-3129,PAYLOAD,2022-05-02 12:00:00,15.08857779,0.0002108,53.2181,56.2287,32.8907,139.7439,-0.0041537,-0.00065825,0.0,0 STARLINK-3129,1 49453U 21104AX  22122.50001157 -.00065825  00000-0 -41537-2 0  9991,2 49453  53.2181  56.2287 0002108  32.8907 139.7439 15.08857779 27414,6917.826,95.436,541.149,538.2330000000002,0.0
49453.0,STARLINK-3129,PAYLOAD,2022-05-02 14:00:01,15.08832933,0.0002043,53.2183,55.8542,33.192,232.3483,-0.0017322,-0.00027746,0.0,0 STARLINK-3129,1 49453U 21104AX  22122.58334491 -.00027746  00000-0 -17322-2 0  9994,2 49453  53.2183  55.8542 0002043  33.1920 232.3483 15.08832933  3601,6917.901999999999,95.438,541.18,538.354,0.0
49453.0,STARLINK-3129,PAYLOAD,2022-05-02 20:00:01,15.08818139,0.000201,53.2184,54.7319,36.0722,148.1508,0.0011677,0.00018334,0.0,0 STARLINK-3129,1 49453U 21104AX  22122.83334491  .00018334  00000-0  11677-2 0  9990,2 49453  53.2184  54.7319 0002010  36.0722 148.1508 15.08818139 27462,6917.946999999999,95.439,541.203,538.422,0.0
49453.0,STARLINK-3129,PAYLOAD,2022-05-02 22:00:01,15.08830575,0.0002064,53.2184,54.3584,34.8598,242.3141,-0.00062037,-0.00010146,0.0,0 STARLINK-3129,1 49453U 21104AX  22122.91668981 -.00010146  00000-0 -62037-3 0  9995,2 49453  53.2184  54.3584 0002064  34.8598 242.3141 15.08830575  3561,6917.909000000002,95.438,541.202,538.346,0.0
49453.0,STARLINK-3129,PAYLOAD,2022-05-03 14:00:01,15.08837627,0.0002127,53.2186,51.3655,35.1034,265.1727,-0.00015042,-2.681e-05,0.0,0 STARLINK-3129,1 49453U 21104AX  22123.58334491 -.00002681  00000-0 -15042-3 0  9994,2 49453  53.2186  51.3655 0002127  35.1034 265.1727 15.08837627  3566,6917.888000000001,95.438,541.224,538.281,0.0
49453.0,STARLINK-3129,PAYLOAD,2022-05-03 20:00:01,15.08842105,0.000217,53.2187,50.2433,39.6134,179.3541,-0.00064445,-0.00010531,0.0,0 STARLINK-3129,1 49453U 21104AX  22123.83334491 -.00010531  00000-0 -64445-3 0  9996,2 49453  53.2187  50.2433 0002170  39.6134 179.3541 15.08842105 27616,6917.874,95.437,541.24,538.238,0.0
49453.0,STARLINK-3129,PAYLOAD,2022-05-03 22:00:00,15.08843494,0.000223,53.2186,49.8696,39.0155,272.8503,-0.0011479,-0.00018513,0.0,0 STARLINK-3129,1 49453U 21104AX  22123.91667824 -.00018513  00000-0 -11479-2 0  9990,2 49453  53.2186  49.8696 0002230  39.0155 272.8503 15.08843494  3594,6917.87,95.437,541.2769999999998,538.192,0.0
49453.0,STARLINK-3129,PAYLOAD,2022-05-04 14:00:01,15.08843677,0.0002213,53.2188,46.8767,38.3385,296.7157,-1.7319e-05,-5.64e-06,0.0,0 STARLINK-3129,1 49453U 21104AX  22124.58334491 -.00000564  00000-0 -17319-4 0  9993,2 49453  53.2188  46.8767 0002213  38.3385 296.7157 15.08843677  3593,6917.869000000002,95.437,541.265,538.203,0.0
49453.0,STARLINK-3129,PAYLOAD,2022-05-04 20:00:01,15.08849036,0.0002207,53.219,45.7545,40.1888,213.6306,-7.0123e-05,-1.404e-05,0.0,0 STARLINK-3129,1 49453U 21104AX  22124.83335648 -.00001404  00000-0 -70123-4 0  9992,2 49453  53.2190  45.7545 0002207  40.1888 213.6306 15.08849036 27764,6917.853,95.437,541.245,538.191,0.0
49453.0,STARLINK-3129,PAYLOAD,2022-05-04 22:00:01,15.08852849,0.000225,53.219,45.3808,38.6111,308.1086,-0.00073882,-0.00012032,0.0,0 STARLINK-3129,1 49453U 21104AX  22124.91668981 -.00012032  00000-0 -73882-3 0  9993,2 49453  53.2190  45.3808 0002250  38.6111 308.1086 15.08852849  3609,6917.840999999999,95.437,541.263,538.15,0.0
49453.0,STARLINK-3129,PAYLOAD,2022-05-05 14:00:01,15.08822103,0.0002129,53.2191,42.3877,36.085,333.7838,0.0011214,0.00017596,0.0,0 STARLINK-3129,1 49453U 21104AX  22125.58334491  .00017596  00000-0  11214-2 0  9991,2 49453  53.2191  42.3877 0002129  36.0850 333.7838 15.08822103  3575,6917.935,95.439,541.273,538.327,0.0
49453.0,STARLINK-3129,PAYLOAD,2022-05-05 20:00:01,15.08843445,0.000212,53.2193,41.2656,37.3556,251.257,-0.0015919,-0.00025537,0.0,0 STARLINK-3129,1 49453U 21104AX  22125.83335648 -.00025537  00000-0 -15919-2 0  9996,2 49453  53.2193  41.2656 0002120  37.3556 251.2570 15.08843445 27911,6917.87,95.437,541.201,538.268,0.0
49453.0,STARLINK-3129,PAYLOAD,2022-05-05 22:00:00,15.0883973,0.0002174,53.2193,40.8922,35.6753,345.7734,-0.0017077,-0.00027364,0.0,0 STARLINK-3129,1 49453U 21104AX  22125.91667824 -.00027364  00000-0 -17077-2 0  9996,2 49453  53.2193  40.8922 0002174  35.6753 345.7734 15.08839730  3604,6917.880999999999,95.438,541.25,538.242,0.0
